{
  "links" : {
    "next" : "https://api.nasa.gov/neo/rest/v1/feed?start_date=2012-02-23&end_date=2012-02-23&detailed=true&api_key=t0TVs3DtDT2H8Oy2Zy8m2eVrNsAVKAexjcZXUckd",
    "prev" : "https://api.nasa.gov/neo/rest/v1/feed?start_date=2012-02-21&end_date=2012-02-21&detailed=true&api_key=t0TVs3DtDT2H8Oy2Zy8m2eVrNsAVKAexjcZXUckd",
    "self" : "https://api.nasa.gov/neo/rest/v1/feed?start_date=2012-02-22&end_date=2012-02-22&detailed=true&api_key=t0TVs3DtDT2H8Oy2Zy8m2eVrNsAVKAexjcZXUckd"
  },
  "element_count" : 6,
  "near_earth_objects" : {
    "2012-02-22" : [ {
      "links" : {
        "self" : "https://api.nasa.gov/neo/rest/v1/neo/3638577?api_key=t0TVs3DtDT2H8Oy2Zy8m2eVrNsAVKAexjcZXUckd"
      },
      "neo_reference_id" : "3638577",
      "name" : "(2013 KT1)",
      "nasa_jpl_url" : "http://ssd.jpl.nasa.gov/sbdb.cgi?sstr=3638577",
      "absolute_magnitude_h" : 26.6,
      "estimated_diameter" : {
        "kilometers" : {
          "estimated_diameter_min" : 0.0127219879,
          "estimated_diameter_max" : 0.0284472297
        },
        "meters" : {
          "estimated_diameter_min" : 12.7219878539,
          "estimated_diameter_max" : 28.4472296503
        },
        "miles" : {
          "estimated_diameter_min" : 0.0079050743,
          "estimated_diameter_max" : 0.0176762835
        },
        "feet" : {
          "estimated_diameter_min" : 41.7388066307,
          "estimated_diameter_max" : 93.330808926
        }
      },
      "is_potentially_hazardous_asteroid" : false,
      "close_approach_data" : [ {
        "close_approach_date" : "2012-02-22",
        "epoch_date_close_approach" : 1329897600000,
        "relative_velocity" : {
          "kilometers_per_second" : "18.7162067157",
          "kilometers_per_hour" : "67378.3441766719",
          "miles_per_hour" : "41866.2828024437"
        },
        "miss_distance" : {
          "astronomical" : "0.4805651483",
          "lunar" : "186.9398498535",
          "kilometers" : "71891528",
          "miles" : "44671324"
        },
        "orbiting_body" : "Earth"
      } ],
      "orbital_data" : {
        "orbit_id" : "9",
        "orbit_determination_date" : "2017-04-06 08:45:45",
        "orbit_uncertainty" : "5",
        "minimum_orbit_intersection" : ".00752234",
        "jupiter_tisserand_invariant" : "6.458",
        "epoch_osculation" : "2458000.5",
        "eccentricity" : ".1639400618983632",
        "semi_major_axis" : ".9233141133176199",
        "inclination" : "8.108076281102999",
        "ascending_node_longitude" : "58.8511474392043",
        "orbital_period" : "324.0579183512963",
        "perihelion_distance" : ".7719459404286969",
        "perihelion_argument" : "317.3472862009817",
        "aphelion_distance" : "1.074682286206543",
        "perihelion_time" : "2457839.319464978098",
        "mean_anomaly" : "179.0574749819341",
        "mean_motion" : "1.110912524006713",
        "equinox" : "J2000"
      }
    }, {
      "links" : {
        "self" : "https://api.nasa.gov/neo/rest/v1/neo/3662200?api_key=t0TVs3DtDT2H8Oy2Zy8m2eVrNsAVKAexjcZXUckd"
      },
      "neo_reference_id" : "3662200",
      "name" : "(2014 DH)",
      "nasa_jpl_url" : "http://ssd.jpl.nasa.gov/sbdb.cgi?sstr=3662200",
      "absolute_magnitude_h" : 26.6,
      "estimated_diameter" : {
        "kilometers" : {
          "estimated_diameter_min" : 0.0127219879,
          "estimated_diameter_max" : 0.0284472297
        },
        "meters" : {
          "estimated_diameter_min" : 12.7219878539,
          "estimated_diameter_max" : 28.4472296503
        },
        "miles" : {
          "estimated_diameter_min" : 0.0079050743,
          "estimated_diameter_max" : 0.0176762835
        },
        "feet" : {
          "estimated_diameter_min" : 41.7388066307,
          "estimated_diameter_max" : 93.330808926
        }
      },
      "is_potentially_hazardous_asteroid" : false,
      "close_approach_data" : [ {
        "close_approach_date" : "2012-02-22",
        "epoch_date_close_approach" : 1329897600000,
        "relative_velocity" : {
          "kilometers_per_second" : "17.4531321794",
          "kilometers_per_hour" : "62831.2758457086",
          "miles_per_hour" : "39040.9113720182"
        },
        "miss_distance" : {
          "astronomical" : "0.2192501077",
          "lunar" : "85.2882919312",
          "kilometers" : "32799350",
          "miles" : "20380572"
        },
        "orbiting_body" : "Earth"
      } ],
      "orbital_data" : {
        "orbit_id" : "6",
        "orbit_determination_date" : "2017-04-06 08:42:26",
        "orbit_uncertainty" : "7",
        "minimum_orbit_intersection" : ".00433977",
        "jupiter_tisserand_invariant" : "6.086",
        "epoch_osculation" : "2458000.5",
        "eccentricity" : ".3617520201870584",
        "semi_major_axis" : ".9865180645431042",
        "inclination" : "1.239590217010763",
        "ascending_node_longitude" : "109.1867636410907",
        "orbital_period" : "357.8952959241585",
        "perihelion_distance" : ".6296431617436093",
        "perihelion_argument" : "284.1848615870529",
        "aphelion_distance" : "1.343392967342599",
        "perihelion_time" : "2458063.942349928280",
        "mean_anomaly" : "296.1845594667419",
        "mean_motion" : "1.005880781613535",
        "equinox" : "J2000"
      }
    }, {
      "links" : {
        "self" : "https://api.nasa.gov/neo/rest/v1/neo/3776011?api_key=t0TVs3DtDT2H8Oy2Zy8m2eVrNsAVKAexjcZXUckd"
      },
      "neo_reference_id" : "3776011",
      "name" : "(2017 MZ2)",
      "nasa_jpl_url" : "http://ssd.jpl.nasa.gov/sbdb.cgi?sstr=3776011",
      "absolute_magnitude_h" : 25.651,
      "estimated_diameter" : {
        "kilometers" : {
          "estimated_diameter_min" : 0.0196949543,
          "estimated_diameter_max" : 0.0440392565
        },
        "meters" : {
          "estimated_diameter_min" : 19.6949542634,
          "estimated_diameter_max" : 44.0392565468
        },
        "miles" : {
          "estimated_diameter_min" : 0.0122378734,
          "estimated_diameter_max" : 0.0273647169
        },
        "feet" : {
          "estimated_diameter_min" : 64.6159937456,
          "estimated_diameter_max" : 144.4857544489
        }
      },
      "is_potentially_hazardous_asteroid" : false,
      "close_approach_data" : [ {
        "close_approach_date" : "2012-02-22",
        "epoch_date_close_approach" : 1329897600000,
        "relative_velocity" : {
          "kilometers_per_second" : "12.925474858",
          "kilometers_per_hour" : "46531.7094887546",
          "miles_per_hour" : "28912.994709832"
        },
        "miss_distance" : {
          "astronomical" : "0.3913622909",
          "lunar" : "152.2399291992",
          "kilometers" : "58546964",
          "miles" : "36379396"
        },
        "orbiting_body" : "Earth"
      } ],
      "orbital_data" : {
        "orbit_id" : "3",
        "orbit_determination_date" : "2017-07-02 06:21:59",
        "orbit_uncertainty" : "5",
        "minimum_orbit_intersection" : ".014082",
        "jupiter_tisserand_invariant" : "6.572",
        "epoch_osculation" : "2458000.5",
        "eccentricity" : ".3084632435194955",
        "semi_major_axis" : ".8973365466859388",
        "inclination" : "11.66123607236532",
        "ascending_node_longitude" : "260.9172617565177",
        "orbital_period" : "310.4784495118197",
        "perihelion_distance" : ".6205412049666109",
        "perihelion_argument" : "234.2994041911559",
        "aphelion_distance" : "1.174131888405266",
        "perihelion_time" : "2458146.063953372274",
        "mean_anomaly" : "191.2184845794794",
        "mean_motion" : "1.15950076588583",
        "equinox" : "J2000"
      }
    } ]
  }
}